CBERS 4                 
1 40336U 14079A   20354.87621833 -.00000000  00000-0  15166-4 0  9993
2 40336  98.5444  64.9394 0000584  85.3603 274.7640 14.35421423316288
CZ-4B R/B               
1 40337U 14079B   20354.43996931  .00000322  00000-0  31380-4 0  9992
2 40337  98.4403 252.6906 0177587  68.3395 293.6629 14.89494433327914
